[
    {
        "CCSDS_OMM_VERS": "3.0",
        "COMMENT": "GENERATED VIA SPACE-TRACK.ORG API",
        "CREATION_DATE": "2025-05-03T07:26:19",
        "ORIGINATOR": "18 SPCS",
        "OBJECT_NAME": "COSMOS 2584(GLONASS)",
        "OBJECT_ID": "2025-042A",
        "CENTER_NAME": "EARTH",
        "REF_FRAME": "TEME",
        "TIME_SYSTEM": "UTC",
        "MEAN_ELEMENT_THEORY": "SGP4",
        "EPOCH": "2025-05-03T00:13:28.264224",
        "MEAN_MOTION": "2.13103656",
        "ECCENTRICITY": "0.00072320",
        "INCLINATION": "64.8553",
        "RA_OF_ASC_NODE": "86.7706",
        "ARG_OF_PERICENTER": "236.1267",
        "MEAN_ANOMALY": "123.7810",
        "EPHEMERIS_TYPE": "0",
        "CLASSIFICATION_TYPE": "U",
        "NORAD_CAT_ID": "63130",
        "ELEMENT_SET_NO": "999",
        "REV_AT_EPOCH": "130",
        "BSTAR": "0.00000000000000",
        "MEAN_MOTION_DOT": "0.00000025",
        "MEAN_MOTION_DDOT": "0.0000000000000",
        "SEMIMAJOR_AXIS": "25507.892",
        "PERIOD": "675.727",
        "APOAPSIS": "19148.205",
        "PERIAPSIS": "19111.310",
        "OBJECT_TYPE": "PAYLOAD",
        "RCS_SIZE": "LARGE",
        "COUNTRY_CODE": "CIS",
        "LAUNCH_DATE": "2025-03-02",
        "SITE": "PKMTR",
        "DECAY_DATE": null,
        "FILE": "4717650",
        "GP_ID": "286737240",
        "TLE_LINE0": "0 COSMOS 2584(GLONASS)",
        "TLE_LINE1": "1 63130U 25042A   25123.00935491  .00000025  00000-0  00000+0 0  9996",
        "TLE_LINE2": "2 63130  64.8553  86.7706 0007232 236.1267 123.7810  2.13103656  1304"
    }
]